{
  "norad_id": 24920,
  "name": "FORTE",
  "history": [
    {
      "epoch": "2026-03-28T19:37:07.660128Z",
      "apogee_km": 813.5779878808144,
      "perigee_km": 783.8779675435471,
      "latitude_deg": 8.658826773857062e-05,
      "longitude_deg": 75.03316307320759,
      "height_km": 787.185204242177,
      "semi_major_axis_km": 7176.86497771218,
      "eccentricity": 0.00206915,
      "inclination_deg": 69.9537,
      "raan_deg": 195.5475,
      "arg_perigee_deg": 20.924,
      "mean_anomaly_deg": 339.2725,
      "mean_motion_rev_day": 14.27909222
    }
  ]
}